[{"OBJECT_NAME":"STARLINK-3770","OBJECT_ID":"2022-051X","EPOCH":"2026-03-09T10:37:40.550016","MEAN_MOTION":15.08836721,"ECCENTRICITY":0.00014649,"INCLINATION":53.2176,"RA_OF_ASC_NODE":135.2298,"ARG_OF_PERICENTER":91.0756,"MEAN_ANOMALY":269.0404,"EPHEMERIS_TYPE":0,"CLASSIFICATION_TYPE":"U","NORAD_CAT_ID":52554,"ELEMENT_SET_NO":999,"REV_AT_EPOCH":21133,"BSTAR":1.6421357e-5,"MEAN_MOTION_DOT":-2.7e-7,"MEAN_MOTION_DDOT":0},{"OBJECT_NAME":"AISAT","OBJECT_ID":"2014-034B","EPOCH":"2026-03-09T16:29:04.722144","MEAN_MOTION":15.06703825,"ECCENTRICITY":0.00089151,"INCLINATION":98.2441,"RA_OF_ASC_NODE":333.9816,"ARG_OF_PERICENTER":189.0234,"MEAN_ANOMALY":171.0832,"EPHEMERIS_TYPE":0,"CLASSIFICATION_TYPE":"U","NORAD_CAT_ID":40054,"ELEMENT_SET_NO":999,"REV_AT_EPOCH":63221,"BSTAR":0.00094770343,"MEAN_MOTION_DOT":0.00014038,"MEAN_MOTION_DDOT":0}]
